{"type": "FeatureCollection", "features": [ {"type": "Feature", "properties": {"norad_id": 43437, "name": "SENTINEL-3B", "group": "resource", "lat": 23.933550236736377, "lon": 62.2803079608331, "alt_km": 801.5116949055264, "timestamp": "2025-12-27T03:58:43.835678+00:00", "meta": {"OBJECT_NAME": "SENTINEL-3B", "OBJECT_ID": "2018-039A", "EPOCH": "2025-12-26T16:05:01.913856", "MEAN_MOTION": 14.2673937, "ECCENTRICITY": 0.000157, "INCLINATION": 98.6249, "RA_OF_ASC_NODE": 65.6546, "ARG_OF_PERICENTER": 87.9796, "MEAN_ANOMALY": 272.1564, "EPHEMERIS_TYPE": 0, "CLASSIFICATION_TYPE": "U", "NORAD_CAT_ID": 43437, "ELEMENT_SET_NO": 999, "REV_AT_EPOCH": 39952, "BSTAR": 7.7314e-05, "MEAN_MOTION_DOT": 1.43e-06, "MEAN_MOTION_DDOT": 0}, "tle": {"line1": "1 43437U 18039A   25360.67016104  .00000143  00000+0  77314-4 0  9996", "line2": "2 43437  98.6249  65.6546 0001570  87.9796 272.1564 14.26739370399529"}}, "geometry": {"type": "Point", "coordinates": [62.2803079608331, 23.933550236736377]}}, {"type": "Feature", "properties": {"norad_id": 43461, "name": "GAOFEN-5 01", "group": "resource", "lat": -39.56128671207625, "lon": -28.572204627622998, "alt_km": 698.3178595476793, "timestamp": "2025-12-27T03:58:43.835693+00:00", "meta": {"OBJECT_NAME": "GAOFEN-5 01", "OBJECT_ID": "2018-043A", "EPOCH": "2025-12-26T18:17:45.839040", "MEAN_MOTION": 14.60424705, "ECCENTRICITY": 5.92e-05, "INCLINATION": 98.4347, "RA_OF_ASC_NODE": 323.9759, "ARG_OF_PERICENTER": 226.7567, "MEAN_ANOMALY": 133.3583, "EPHEMERIS_TYPE": 0, "CLASSIFICATION_TYPE": "U", "NORAD_CAT_ID": 43461, "ELEMENT_SET_NO": 999, "REV_AT_EPOCH": 40652, "BSTAR": 0.0001151, "MEAN_MOTION_DOT": 5.09e-06, "MEAN_MOTION_DDOT": 0}, "tle": {"line1": "1 43461U 18043A   25360.76233610  .00000509  00000+0  11510-3 0  9992", "line2": "2 43461  98.4347 323.9759 0000592 226.7567 133.3583 14.60424705406520"}}, "geometry": {"type": "Point", "coordinates": [-28.572204627622998, -39.56128671207625]}}, {"type": "Feature", "properties": {"norad_id": 43484, "name": "GAOFEN-6", "group": "resource", "lat": 71.27968942435649, "lon": 41.084382337614436, "alt_km": 627.9096520535959, "timestamp": "2025-12-27T03:58:43.835702+00:00", "meta": {"OBJECT_NAME": "GAOFEN-6", "OBJECT_ID": "2018-048A", "EPOCH": "2025-12-26T21:08:42.328608", "MEAN_MOTION": 14.765913, "ECCENTRICITY": 0.0012439, "INCLINATION": 97.8008, "RA_OF_ASC_NODE": 64.6716, "ARG_OF_PERICENTER": 21.3384, "MEAN_ANOMALY": 338.8342, "EPHEMERIS_TYPE": 0, "CLASSIFICATION_TYPE": "U", "NORAD_CAT_ID": 43484, "ELEMENT_SET_NO": 999, "REV_AT_EPOCH": 40796, "BSTAR": 0.00015502, "MEAN_MOTION_DOT": 1.034e-05, "MEAN_MOTION_DDOT": 0}, "tle": {"line1": "1 43484U 18048A   25360.88104547  .00001034  00000+0  15502-3 0  9990", "line2": "2 43484  97.8008  64.6716 0012439  21.3384 338.8342 14.76591300407960"}}, "geometry": {"type": "Point", "coordinates": [41.084382337614436, 71.27968942435649]}}, {"type": "Feature", "properties": {"norad_id": 43585, "name": "GAOFEN-11 01", "group": "resource", "lat": 55.20018281343244, "lon": 53.56978059658513, "alt_km": 415.3473396339914, "timestamp": "2025-12-27T03:58:43.835711+00:00", "meta": {"OBJECT_NAME": "GAOFEN-11 01", "OBJECT_ID": "2018-063A", "EPOCH": "2025-12-26T19:59:22.282656", "MEAN_MOTION": 15.49610716, "ECCENTRICITY": 0.0003955, "INCLINATION": 97.1535, "RA_OF_ASC_NODE": 63.6506, "ARG_OF_PERICENTER": 239.6264, "MEAN_ANOMALY": 120.4597, "EPHEMERIS_TYPE": 0, "CLASSIFICATION_TYPE": "U", "NORAD_CAT_ID": 43585, "ELEMENT_SET_NO": 999, "REV_AT_EPOCH": 41360, "BSTAR": 0.00015239, "MEAN_MOTION_DOT": 8.334e-05, "MEAN_MOTION_DDOT": 0}, "tle": {"line1": "1 43585U 18063A   25360.83289679  .00008334  00000+0  15239-3 0  9991", "line2": "2 43585  97.1535  63.6506 0003955 239.6264 120.4597 15.49610716413609"}}, "geometry": {"type": "Point", "coordinates": [53.56978059658513, 55.20018281343244]}}, {"type": "Feature", "properties": {"norad_id": 43613, "name": "ICESAT-2", "group": "resource", "lat": 48.49372067090071, "lon": 66.89767120914743, "alt_km": 474.7044438753928, "timestamp": "2025-12-27T03:58:43.835722+00:00", "meta": {"OBJECT_NAME": "ICESAT-2", "OBJECT_ID": "2018-070A", "EPOCH": "2025-12-26T19:32:55.093056", "MEAN_MOTION": 15.28279865, "ECCENTRICITY": 0.0003232, "INCLINATION": 92.0036, "RA_OF_ASC_NODE": 244.5357, "ARG_OF_PERICENTER": 108.5063, "MEAN_ANOMALY": 251.6538, "EPHEMERIS_TYPE": 0, "CLASSIFICATION_TYPE": "U", "NORAD_CAT_ID": 43613, "ELEMENT_SET_NO": 999, "REV_AT_EPOCH": 40613, "BSTAR": 0.00047691, "MEAN_MOTION_DOT": 0.0001314, "MEAN_MOTION_DDOT": 0}, "tle": {"line1": "1 43613U 18070A   25360.81452654  .00013140  00000+0  47691-3 0  9992", "line2": "2 43613  92.0036 244.5357 0003232 108.5063 251.6538 15.28279865406139"}}, "geometry": {"type": "Point", "coordinates": [66.89767120914743, 48.49372067090071]}}, {"type": "Feature", "properties": {"norad_id": 43719, "name": "HYSIS", "group": "resource", "lat": -36.266327894045375, "lon": -121.85639341223514, "alt_km": 640.3505799710047, "timestamp": "2025-12-27T03:58:43.835731+00:00", "meta": {"OBJECT_NAME": "HYSIS", "OBJECT_ID": "2018-096A", "EPOCH": "2025-12-26T20:30:22.250016", "MEAN_MOTION": 14.78681442, "ECCENTRICITY": 7.66e-05, "INCLINATION": 98.0075, "RA_OF_ASC_NODE": 63.7618, "ARG_OF_PERICENTER": 53.311, "MEAN_ANOMALY": 306.8171, "EPHEMERIS_TYPE": 0, "CLASSIFICATION_TYPE": "U", "NORAD_CAT_ID": 43719, "ELEMENT_SET_NO": 999, "REV_AT_EPOCH": 38195, "BSTAR": 0.00013766, "MEAN_MOTION_DOT": 9.57e-06, "MEAN_MOTION_DDOT": 0}, "tle": {"line1": "1 43719U 18096A   25360.85442419  .00000957  00000+0  13766-3 0  9997", "line2": "2 43719  98.0075  63.7618 0000766  53.3110 306.8171 14.78681442381955"}}, "geometry": {"type": "Point", "coordinates": [-121.85639341223514, -36.266327894045375]}}, {"type": "Feature", "properties": {"norad_id": 43783, "name": "KAZSTSAT", "group": "resource", "lat": 81.34333906062439, "lon": -23.542696816648338, "alt_km": 565.8632542870828, "timestamp": "2025-12-27T03:58:43.835740+00:00", "meta": {"OBJECT_NAME": "KAZSTSAT", "OBJECT_ID": "2018-099AB", "EPOCH": "2025-12-26T19:35:23.578368", "MEAN_MOTION": 14.99375165, "ECCENTRICITY": 0.0006431, "INCLINATION": 97.4509, "RA_OF_ASC_NODE": 35.3935, "ARG_OF_PERICENTER": 267.5057, "MEAN_ANOMALY": 92.543, "EPHEMERIS_TYPE": 0, "CLASSIFICATION_TYPE": "U", "NORAD_CAT_ID": 43783, "ELEMENT_SET_NO": 999, "REV_AT_EPOCH": 38547, "BSTAR": 7.1468e-05, "MEAN_MOTION_DOT": 8.19e-06, "MEAN_MOTION_DDOT": 0}, "tle": {"line1": "1 43783U 18099AB  25360.81624512  .00000819  00000+0  71468-4 0  9994", "line2": "2 43783  97.4509  35.3935 0006431 267.5057  92.5430 14.99375165385475"}}, "geometry": {"type": "Point", "coordinates": [-23.542696816648338, 81.34333906062439]}}, {"type": "Feature", "properties": {"norad_id": 43831, "name": "SAUDISAT 5A", "group": "resource", "lat": 65.07453184080244, "lon": 44.99030099453319, "alt_km": 475.8269029821631, "timestamp": "2025-12-27T03:58:43.835749+00:00", "meta": {"OBJECT_NAME": "SAUDISAT 5A", "OBJECT_ID": "2018-102A", "EPOCH": "2025-12-26T21:23:42.176832", "MEAN_MOTION": 15.25831309, "ECCENTRICITY": 0.0010926, "INCLINATION": 97.333, "RA_OF_ASC_NODE": 60.8089, "ARG_OF_PERICENTER": 31.9362, "MEAN_ANOMALY": 328.2536, "EPHEMERIS_TYPE": 0, "CLASSIFICATION_TYPE": "U", "NORAD_CAT_ID": 43831, "ELEMENT_SET_NO": 999, "REV_AT_EPOCH": 38938, "BSTAR": 0.00026016, "MEAN_MOTION_DOT": 6.595e-05, "MEAN_MOTION_DDOT": 0}, "tle": {"line1": "1 43831U 18102A   25360.89146038  .00006595  00000+0  26016-3 0  9998", "line2": "2 43831  97.3330  60.8089 0010926  31.9362 328.2536 15.25831309389386"}}, "geometry": {"type": "Point", "coordinates": [44.99030099453319, 65.07453184080244]}}, {"type": "Feature", "properties": {"norad_id": 43833, "name": "SAUDISAT 5B", "group": "resource", "lat": 42.91663273617902, "lon": -109.27141102226086, "alt_km": 485.64858075220945, "timestamp": "2025-12-27T03:58:43.835759+00:00", "meta": {"OBJECT_NAME": "SAUDISAT 5B", "OBJECT_ID": "2018-102C", "EPOCH": "2025-12-26T21:05:20.798880", "MEAN_MOTION": 15.26175845, "ECCENTRICITY": 0.0011687, "INCLINATION": 97.3425, "RA_OF_ASC_NODE": 63.5605, "ARG_OF_PERICENTER": 33.9518, "MEAN_ANOMALY": 326.2466, "EPHEMERIS_TYPE": 0, "CLASSIFICATION_TYPE": "U", "NORAD_CAT_ID": 43833, "ELEMENT_SET_NO": 999, "REV_AT_EPOCH": 38949, "BSTAR": 0.00025398, "MEAN_MOTION_DOT": 6.505e-05, "MEAN_MOTION_DDOT": 0}, "tle": {"line1": "1 43833U 18102C   25360.87871295  .00006505  00000+0  25398-3 0  9991", "line2": "2 43833  97.3425  63.5605 0011687  33.9518 326.2466 15.26175845389496"}}, "geometry": {"type": "Point", "coordinates": [-109.27141102226086, 42.91663273617902]}}, {"type": "Feature", "properties": {"norad_id": 44622, "name": "GAOFEN-10R", "group": "resource", "lat": -3.7951811076044164, "lon": -50.733302542765635, "alt_km": 619.095278164411, "timestamp": "2025-12-27T03:58:43.835768+00:00", "meta": {"OBJECT_NAME": "GAOFEN-10R", "OBJECT_ID": "2019-066A", "EPOCH": "2025-12-26T19:53:54.837024", "MEAN_MOTION": 14.82840306, "ECCENTRICITY": 0.0006831, "INCLINATION": 98.0296, "RA_OF_ASC_NODE": 308.3921, "ARG_OF_PERICENTER": 0.0532, "MEAN_ANOMALY": 0.0681, "EPHEMERIS_TYPE": 0, "CLASSIFICATION_TYPE": "U", "NORAD_CAT_ID": 44622, "ELEMENT_SET_NO": 999, "REV_AT_EPOCH": 33683, "BSTAR": 0.00023524, "MEAN_MOTION_DOT": 1.85e-05, "MEAN_MOTION_DDOT": 0}, "tle": {"line1": "1 44622U 19066A   25360.82910691  .00001850  00000+0  23524-3 0  9994", "line2": "2 44622  98.0296 308.3921 0006831   0.0532   0.0681 14.82840306336832"}}, "geometry": {"type": "Point", "coordinates": [-50.733302542765635, -3.7951811076044164]}}]}